{"type": "FeatureCollection", "features": [ {"type": "Feature", "properties": {"norad_id": 32289, "name": "YAOGAN-3", "group": "resource", "lat": 57.837746858695255, "lon": -160.87243402369765, "alt_km": 592.2122798740347, "timestamp": "2025-12-05T18:53:12.953399+00:00", "meta": {"OBJECT_NAME": "YAOGAN-3", "OBJECT_ID": "2007-055A", "EPOCH": "2025-12-05T07:03:40.262400", "MEAN_MOTION": 14.89802483, "ECCENTRICITY": 0.00015337, "INCLINATION": 97.8369, "RA_OF_ASC_NODE": 5.9869, "ARG_OF_PERICENTER": 78.7649, "MEAN_ANOMALY": 281.3741, "EPHEMERIS_TYPE": 0, "CLASSIFICATION_TYPE": "U", "NORAD_CAT_ID": 32289, "ELEMENT_SET_NO": 999, "REV_AT_EPOCH": 97698, "BSTAR": 0.00056550091, "MEAN_MOTION_DOT": 5.373e-05, "MEAN_MOTION_DDOT": 0}, "tle": {"line1": "1 32289U 07055A   25339.29421600  .00005373  00000+0  56550-3 0  9998", "line2": "2 32289  97.8369   5.9869 0001533  78.7649 281.3741 14.89802483976980"}}, "geometry": {"type": "Point", "coordinates": [-160.87243402369765, 57.837746858695255]}}, {"type": "Feature", "properties": {"norad_id": 32376, "name": "COSMO-SKYMED 2", "group": "resource", "lat": -51.46680875695062, "lon": -28.80094076575131, "alt_km": 630.3917397490823, "timestamp": "2025-12-05T18:53:12.953409+00:00", "meta": {"OBJECT_NAME": "COSMO-SKYMED 2", "OBJECT_ID": "2007-059A", "EPOCH": "2025-12-05T06:30:04.674816", "MEAN_MOTION": 14.82152343, "ECCENTRICITY": 0.00015419, "INCLINATION": 97.8806, "RA_OF_ASC_NODE": 160.707, "ARG_OF_PERICENTER": 87.2626, "MEAN_ANOMALY": 272.8764, "EPHEMERIS_TYPE": 0, "CLASSIFICATION_TYPE": "U", "NORAD_CAT_ID": 32376, "ELEMENT_SET_NO": 999, "REV_AT_EPOCH": 97327, "BSTAR": 0.00017133371, "MEAN_MOTION_DOT": 1.312e-05, "MEAN_MOTION_DDOT": 0}, "tle": {"line1": "1 32376U 07059A   25339.27088744  .00001312  00000+0  17133-3 0  9998", "line2": "2 32376  97.8806 160.7070 0001541  87.2626 272.8764 14.82152343973271"}}, "geometry": {"type": "Point", "coordinates": [-28.80094076575131, -51.46680875695062]}}, {"type": "Feature", "properties": {"norad_id": 32382, "name": "RADARSAT-2", "group": "resource", "lat": 44.004163939228995, "lon": -23.906275514128055, "alt_km": 787.4929237046381, "timestamp": "2025-12-05T18:53:12.953419+00:00", "meta": {"OBJECT_NAME": "RADARSAT-2", "OBJECT_ID": "2007-061A", "EPOCH": "2025-12-05T06:55:25.814208", "MEAN_MOTION": 14.29984434, "ECCENTRICITY": 0.00010769, "INCLINATION": 98.5799, "RA_OF_ASC_NODE": 343.987, "ARG_OF_PERICENTER": 91.2889, "MEAN_ANOMALY": 268.8416, "EPHEMERIS_TYPE": 0, "CLASSIFICATION_TYPE": "U", "NORAD_CAT_ID": 32382, "ELEMENT_SET_NO": 999, "REV_AT_EPOCH": 93824, "BSTAR": 7.819266e-05, "MEAN_MOTION_DOT": 1.58e-06, "MEAN_MOTION_DDOT": 0}, "tle": {"line1": "1 32382U 07061A   25339.28849322  .00000158  00000+0  78193-4 0  9997", "line2": "2 32382  98.5799 343.9870 0001076  91.2889 268.8416 14.29984434938241"}}, "geometry": {"type": "Point", "coordinates": [-23.906275514128055, 44.004163939228995]}}, {"type": "Feature", "properties": {"norad_id": 32783, "name": "CARTOSAT-2A", "group": "resource", "lat": 81.74224395518983, "lon": -79.4763080022948, "alt_km": 621.8004198860799, "timestamp": "2025-12-05T18:53:12.953430+00:00", "meta": {"OBJECT_NAME": "CARTOSAT-2A", "OBJECT_ID": "2008-021A", "EPOCH": "2025-12-05T07:06:12.809376", "MEAN_MOTION": 14.7891566, "ECCENTRICITY": 0.00123624, "INCLINATION": 97.7942, "RA_OF_ASC_NODE": 29.3518, "ARG_OF_PERICENTER": 27.9924, "MEAN_ANOMALY": 332.195, "EPHEMERIS_TYPE": 0, "CLASSIFICATION_TYPE": "U", "NORAD_CAT_ID": 32783, "ELEMENT_SET_NO": 999, "REV_AT_EPOCH": 95014, "BSTAR": 0.00023950184, "MEAN_MOTION_DOT": 1.717e-05, "MEAN_MOTION_DDOT": 0}, "tle": {"line1": "1 32783U 08021A   25339.29598159  .00001717  00000+0  23950-3 0  9991", "line2": "2 32783  97.7942  29.3518 0012362  27.9924 332.1950 14.78915660950147"}}, "geometry": {"type": "Point", "coordinates": [-79.4763080022948, 81.74224395518983]}}, {"type": "Feature", "properties": {"norad_id": 33320, "name": "HUANJING 1A (HJ-1A)", "group": "resource", "lat": -26.78681426957391, "lon": 144.48357358779907, "alt_km": 637.0757447774567, "timestamp": "2025-12-05T18:53:12.953440+00:00", "meta": {"OBJECT_NAME": "HUANJING 1A (HJ-1A)", "OBJECT_ID": "2008-041A", "EPOCH": "2025-12-05T06:37:32.446272", "MEAN_MOTION": 14.83357551, "ECCENTRICITY": 0.00205716, "INCLINATION": 97.6531, "RA_OF_ASC_NODE": 327.8865, "ARG_OF_PERICENTER": 57.7093, "MEAN_ANOMALY": 302.6111, "EPHEMERIS_TYPE": 0, "CLASSIFICATION_TYPE": "U", "NORAD_CAT_ID": 33320, "ELEMENT_SET_NO": 999, "REV_AT_EPOCH": 92965, "BSTAR": 0.00037745191, "MEAN_MOTION_DOT": 3.054e-05, "MEAN_MOTION_DDOT": 0}, "tle": {"line1": "1 33320U 08041A   25339.27606998  .00003054  00000+0  37745-3 0  9993", "line2": "2 33320  97.6531 327.8865 0020571  57.7093 302.6111 14.83357551929656"}}, "geometry": {"type": "Point", "coordinates": [144.48357358779907, -26.78681426957391]}}, {"type": "Feature", "properties": {"norad_id": 33321, "name": "HUANJING 1B (HJ-1B)", "group": "resource", "lat": 78.98861441150225, "lon": -71.51886998003985, "alt_km": 587.3983170503643, "timestamp": "2025-12-05T18:53:12.953451+00:00", "meta": {"OBJECT_NAME": "HUANJING 1B (HJ-1B)", "OBJECT_ID": "2008-041B", "EPOCH": "2025-12-05T07:10:57.919872", "MEAN_MOTION": 14.82791299, "ECCENTRICITY": 0.00382463, "INCLINATION": 97.6392, "RA_OF_ASC_NODE": 331.6252, "ARG_OF_PERICENTER": 99.3445, "MEAN_ANOMALY": 261.2097, "EPHEMERIS_TYPE": 0, "CLASSIFICATION_TYPE": "U", "NORAD_CAT_ID": 33321, "ELEMENT_SET_NO": 999, "REV_AT_EPOCH": 92967, "BSTAR": 0.00030388054, "MEAN_MOTION_DOT": 2.437e-05, "MEAN_MOTION_DDOT": 0}, "tle": {"line1": "1 33321U 08041B   25339.29928148  .00002437  00000+0  30388-3 0  9990", "line2": "2 33321  97.6392 331.6252 0038246  99.3445 261.2097 14.82791299929671"}}, "geometry": {"type": "Point", "coordinates": [-71.51886998003985, 78.98861441150225]}}, {"type": "Feature", "properties": {"norad_id": 33331, "name": "GEOEYE 1", "group": "resource", "lat": 21.626593166229206, "lon": -125.5983193694931, "alt_km": 679.3098457358337, "timestamp": "2025-12-05T18:53:12.953461+00:00", "meta": {"OBJECT_NAME": "GEOEYE 1", "OBJECT_ID": "2008-042A", "EPOCH": "2025-12-05T06:41:29.699808", "MEAN_MOTION": 14.64796812, "ECCENTRICITY": 0.00029059, "INCLINATION": 98.1261, "RA_OF_ASC_NODE": 50.6525, "ARG_OF_PERICENTER": 309.478, "MEAN_ANOMALY": 50.6165, "EPHEMERIS_TYPE": 0, "CLASSIFICATION_TYPE": "U", "NORAD_CAT_ID": 33331, "ELEMENT_SET_NO": 999, "REV_AT_EPOCH": 92176, "BSTAR": 0.00023660081, "MEAN_MOTION_DOT": 1.214e-05, "MEAN_MOTION_DDOT": 0}, "tle": {"line1": "1 33331U 08042A   25339.27881597  .00001214  00000+0  23660-3 0  9993", "line2": "2 33331  98.1261  50.6525 0002905 309.4780  50.6165 14.64796812921768"}}, "geometry": {"type": "Point", "coordinates": [-125.5983193694931, 21.626593166229206]}}, {"type": "Feature", "properties": {"norad_id": 33396, "name": "THEOS", "group": "resource", "lat": 51.2502749750448, "lon": 27.228528185418003, "alt_km": 819.7143748291537, "timestamp": "2025-12-05T18:53:12.953472+00:00", "meta": {"OBJECT_NAME": "THEOS", "OBJECT_ID": "2008-049A", "EPOCH": "2025-12-05T06:48:20.586240", "MEAN_MOTION": 14.20094002, "ECCENTRICITY": 0.0001101, "INCLINATION": 98.5879, "RA_OF_ASC_NODE": 37.5929, "ARG_OF_PERICENTER": 99.939, "MEAN_ANOMALY": 260.1912, "EPHEMERIS_TYPE": 0, "CLASSIFICATION_TYPE": "U", "NORAD_CAT_ID": 33396, "ELEMENT_SET_NO": 999, "REV_AT_EPOCH": 89044, "BSTAR": 9.6012803e-05, "MEAN_MOTION_DOT": 1.62e-06, "MEAN_MOTION_DDOT": 0}, "tle": {"line1": "1 33396U 08049A   25339.28357160  .00000162  00000+0  96013-4 0  9990", "line2": "2 33396  98.5879  37.5929 0001101  99.9390 260.1912 14.20094002890447"}}, "geometry": {"type": "Point", "coordinates": [27.228528185418003, 51.2502749750448]}}, {"type": "Feature", "properties": {"norad_id": 33412, "name": "COSMO-SKYMED 3", "group": "resource", "lat": 9.734587998512664, "lon": 11.417197492056914, "alt_km": 542.825921359633, "timestamp": "2025-12-05T18:53:12.953483+00:00", "meta": {"OBJECT_NAME": "COSMO-SKYMED 3", "OBJECT_ID": "2008-054A", "EPOCH": "2025-12-05T06:57:55.107360", "MEAN_MOTION": 15.05243631, "ECCENTRICITY": 0.00155932, "INCLINATION": 97.8458, "RA_OF_ASC_NODE": 189.5569, "ARG_OF_PERICENTER": 199.0141, "MEAN_ANOMALY": 161.0504, "EPHEMERIS_TYPE": 0, "CLASSIFICATION_TYPE": "U", "NORAD_CAT_ID": 33412, "ELEMENT_SET_NO": 999, "REV_AT_EPOCH": 92775, "BSTAR": 0.00060595947, "MEAN_MOTION_DOT": 8.618e-05, "MEAN_MOTION_DDOT": 0}, "tle": {"line1": "1 33412U 08054A   25339.29022115  .00008618  00000+0  60596-3 0  9995", "line2": "2 33412  97.8458 189.5569 0015593 199.0141 161.0504 15.05243631927754"}}, "geometry": {"type": "Point", "coordinates": [11.417197492056914, 9.734587998512664]}}, {"type": "Feature", "properties": {"norad_id": 33446, "name": "YAOGAN-4", "group": "resource", "lat": -2.875455317606612, "lon": -89.64471887788415, "alt_km": 614.5801169556898, "timestamp": "2025-12-05T18:53:12.953493+00:00", "meta": {"OBJECT_NAME": "YAOGAN-4", "OBJECT_ID": "2008-061A", "EPOCH": "2025-12-05T05:56:32.138016", "MEAN_MOTION": 14.82645538, "ECCENTRICITY": 0.00142248, "INCLINATION": 97.9172, "RA_OF_ASC_NODE": 269.4209, "ARG_OF_PERICENTER": 348.3495, "MEAN_ANOMALY": 11.7387, "EPHEMERIS_TYPE": 0, "CLASSIFICATION_TYPE": "U", "NORAD_CAT_ID": 33446, "ELEMENT_SET_NO": 999, "REV_AT_EPOCH": 91692, "BSTAR": 0.00038125296, "MEAN_MOTION_DOT": 3.024e-05, "MEAN_MOTION_DDOT": 0}, "tle": {"line1": "1 33446U 08061A   25339.24759419  .00003024  00000+0  38125-3 0  9998", "line2": "2 33446  97.9172 269.4209 0014224 348.3495  11.7387 14.82645538916928"}}, "geometry": {"type": "Point", "coordinates": [-89.64471887788415, -2.875455317606612]}}]}